ORBCOMM FM115           
1 41186U 15081H   25047.86866888  .00001556  00000+0  34117-3 0  9996
2 41186  46.9973 251.6470 0001214 223.4336 136.6456 14.62086678490165
ORBCOMM FM108           
1 41187U 15081J   25047.15206088  .00002495  00000+0  57676-3 0  9997
2 41187  47.0052 318.4355 0002264 110.0353 250.0776 14.57791284489137
ORBCOMM FM117           
1 41188U 15081K   25047.46106386  .00002352  00000+0  54579-3 0  9993
2 41188  47.0014 315.7805 0002616 122.9672 237.1465 14.57799738489226
ORBCOMM FM116           
1 41189U 15081L   25047.72576344  .00001663  00000+0  39690-3 0  9999
2 41189  47.0028  44.3848 0001979 244.8773 115.1907 14.57764840488143
