<?xml version="1.0" encoding="UTF-8"?>
<ndm xmlns:xsi="http://www.w3.org/2001/XMLSchema-instance" xsi:noNamespaceSchemaLocation="https://sanaregistry.org/r/ndmxml_unqualified/ndmxml-2.0.0-master-2.0.xsd">
<omm id="CCSDS_OMM_VERS" version="2.0">
<header><CREATION_DATE/><ORIGINATOR/></header><body><segment><metadata><OBJECT_NAME>ORBCOMM FM115</OBJECT_NAME><OBJECT_ID>2015-081H</OBJECT_ID><CENTER_NAME>EARTH</CENTER_NAME><REF_FRAME>TEME</REF_FRAME><TIME_SYSTEM>UTC</TIME_SYSTEM><MEAN_ELEMENT_THEORY>SGP4</MEAN_ELEMENT_THEORY></metadata><data><meanElements><EPOCH>2025-02-16T20:50:52.991232</EPOCH><MEAN_MOTION>14.62086678</MEAN_MOTION><ECCENTRICITY>.0001214</ECCENTRICITY><INCLINATION>46.9973</INCLINATION><RA_OF_ASC_NODE>251.6470</RA_OF_ASC_NODE><ARG_OF_PERICENTER>223.4336</ARG_OF_PERICENTER><MEAN_ANOMALY>136.6456</MEAN_ANOMALY></meanElements><tleParameters><EPHEMERIS_TYPE>0</EPHEMERIS_TYPE><CLASSIFICATION_TYPE>U</CLASSIFICATION_TYPE><NORAD_CAT_ID>41186</NORAD_CAT_ID><ELEMENT_SET_NO>999</ELEMENT_SET_NO><REV_AT_EPOCH>49016</REV_AT_EPOCH><BSTAR>.34117E-3</BSTAR><MEAN_MOTION_DOT>.1556E-4</MEAN_MOTION_DOT><MEAN_MOTION_DDOT>0</MEAN_MOTION_DDOT></tleParameters></data></segment></body></omm>
<omm id="CCSDS_OMM_VERS" version="2.0">
<header><CREATION_DATE/><ORIGINATOR/></header><body><segment><metadata><OBJECT_NAME>ORBCOMM FM108</OBJECT_NAME><OBJECT_ID>2015-081J</OBJECT_ID><CENTER_NAME>EARTH</CENTER_NAME><REF_FRAME>TEME</REF_FRAME><TIME_SYSTEM>UTC</TIME_SYSTEM><MEAN_ELEMENT_THEORY>SGP4</MEAN_ELEMENT_THEORY></metadata><data><meanElements><EPOCH>2025-02-16T03:38:58.060032</EPOCH><MEAN_MOTION>14.57791284</MEAN_MOTION><ECCENTRICITY>.0002264</ECCENTRICITY><INCLINATION>47.0052</INCLINATION><RA_OF_ASC_NODE>318.4355</RA_OF_ASC_NODE><ARG_OF_PERICENTER>110.0353</ARG_OF_PERICENTER><MEAN_ANOMALY>250.0776</MEAN_ANOMALY></meanElements><tleParameters><EPHEMERIS_TYPE>0</EPHEMERIS_TYPE><CLASSIFICATION_TYPE>U</CLASSIFICATION_TYPE><NORAD_CAT_ID>41187</NORAD_CAT_ID><ELEMENT_SET_NO>999</ELEMENT_SET_NO><REV_AT_EPOCH>48913</REV_AT_EPOCH><BSTAR>.57676E-3</BSTAR><MEAN_MOTION_DOT>.2495E-4</MEAN_MOTION_DOT><MEAN_MOTION_DDOT>0</MEAN_MOTION_DDOT></tleParameters></data></segment></body></omm>
<omm id="CCSDS_OMM_VERS" version="2.0">
<header><CREATION_DATE/><ORIGINATOR/></header><body><segment><metadata><OBJECT_NAME>ORBCOMM FM117</OBJECT_NAME><OBJECT_ID>2015-081K</OBJECT_ID><CENTER_NAME>EARTH</CENTER_NAME><REF_FRAME>TEME</REF_FRAME><TIME_SYSTEM>UTC</TIME_SYSTEM><MEAN_ELEMENT_THEORY>SGP4</MEAN_ELEMENT_THEORY></metadata><data><meanElements><EPOCH>2025-02-16T11:03:55.917504</EPOCH><MEAN_MOTION>14.57799738</MEAN_MOTION><ECCENTRICITY>.0002616</ECCENTRICITY><INCLINATION>47.0014</INCLINATION><RA_OF_ASC_NODE>315.7805</RA_OF_ASC_NODE><ARG_OF_PERICENTER>122.9672</ARG_OF_PERICENTER><MEAN_ANOMALY>237.1465</MEAN_ANOMALY></meanElements><tleParameters><EPHEMERIS_TYPE>0</EPHEMERIS_TYPE><CLASSIFICATION_TYPE>U</CLASSIFICATION_TYPE><NORAD_CAT_ID>41188</NORAD_CAT_ID><ELEMENT_SET_NO>999</ELEMENT_SET_NO><REV_AT_EPOCH>48922</REV_AT_EPOCH><BSTAR>.54579E-3</BSTAR><MEAN_MOTION_DOT>.2352E-4</MEAN_MOTION_DOT><MEAN_MOTION_DDOT>0</MEAN_MOTION_DDOT></tleParameters></data></segment></body></omm>
<omm id="CCSDS_OMM_VERS" version="2.0">
<header><CREATION_DATE/><ORIGINATOR/></header><body><segment><metadata><OBJECT_NAME>ORBCOMM FM116</OBJECT_NAME><OBJECT_ID>2015-081L</OBJECT_ID><CENTER_NAME>EARTH</CENTER_NAME><REF_FRAME>TEME</REF_FRAME><TIME_SYSTEM>UTC</TIME_SYSTEM><MEAN_ELEMENT_THEORY>SGP4</MEAN_ELEMENT_THEORY></metadata><data><meanElements><EPOCH>2025-02-16T17:25:05.961216</EPOCH><MEAN_MOTION>14.57764840</MEAN_MOTION><ECCENTRICITY>.0001979</ECCENTRICITY><INCLINATION>47.0028</INCLINATION><RA_OF_ASC_NODE>44.3848</RA_OF_ASC_NODE><ARG_OF_PERICENTER>244.8773</ARG_OF_PERICENTER><MEAN_ANOMALY>115.1907</MEAN_ANOMALY></meanElements><tleParameters><EPHEMERIS_TYPE>0</EPHEMERIS_TYPE><CLASSIFICATION_TYPE>U</CLASSIFICATION_TYPE><NORAD_CAT_ID>41189</NORAD_CAT_ID><ELEMENT_SET_NO>999</ELEMENT_SET_NO><REV_AT_EPOCH>48814</REV_AT_EPOCH><BSTAR>.3969E-3</BSTAR><MEAN_MOTION_DOT>.1663E-4</MEAN_MOTION_DOT><MEAN_MOTION_DDOT>0</MEAN_MOTION_DDOT></tleParameters></data></segment></body></omm>
</ndm>
